; Generated by pcb_gcode.py
; layer=F.Cu  tracks=143  optimize=True
; pen-up travel = 332.3 mm
G21
G90
G0 Z5
G0 X94.48 Y64.38 F3000
G1 Z0 F3000
G1 X95.5912 Y65.4912 F800
G0 Z5
G0 X95.5912 Y65.4912 F3000
G1 Z0 F3000
G1 X104.149 Y65.4912 F800
G0 Z5
G0 X104.149 Y65.4912 F3000
G1 Z0 F3000
G1 X105.26 Y64.38 F800
G0 Z5
G0 X105.26 Y64.38 F3000
G1 Z0 F3000
G1 X106.782 Y62.8584 F800
G0 Z5
G0 X106.782 Y62.8584 F3000
G1 Z0 F3000
G1 X125.298 Y62.8584 F800
G0 Z5
G0 X125.298 Y62.8584 F3000
G1 Z0 F3000
G1 X126.82 Y64.38 F800
G0 Z5
G0 X126.82 Y64.38 F3000
G1 Z0 F3000
G1 X128.395 Y62.8046 F800
G0 Z5
G0 X128.395 Y62.8046 F3000
G1 Z0 F3000
G1 X160.732 Y62.8046 F800
G0 Z5
G0 X160.732 Y62.8046 F3000
G1 Z0 F3000
G1 X160.732 Y62.6183 F800
G0 Z5
G0 X160.732 Y62.8046 F3000
G1 Z0 F3000
G1 X181.911 Y62.8046 F800
G0 Z5
G0 X181.911 Y62.8046 F3000
G1 Z0 F3000
G1 X184.756 Y65.65 F800
G0 Z5
G0 X184.756 Y65.65 F3000
G1 Z0 F3000
G1 X190.23 Y65.65 F800
G0 Z5
G0 X190.23 Y65.65 F3000
G1 Z0 F3000
G1 X191.5 Y66.92 F800
G0 Z5
G0 X190.23 Y68.19 F3000
G1 Z0 F3000
G1 X181.99 Y68.19 F800
G0 Z5
G0 X181.99 Y68.19 F3000
G1 Z0 F3000
G1 X180.72 Y66.92 F800
G0 Z5
G0 X179.45 Y68.19 F3000
G1 Z0 F3000
G1 X180.72 Y69.46 F800
G0 Z5
G0 X179.45 Y68.19 F3000
G1 Z0 F3000
G1 X174.502 Y68.19 F800
G0 Z5
G0 X174.502 Y68.19 F3000
G1 Z0 F3000
G1 X172.101 Y65.7894 F800
G0 Z5
G0 X172.101 Y65.7894 F3000
G1 Z0 F3000
G1 X135.571 Y65.7894 F800
G0 Z5
G0 X135.571 Y65.7894 F3000
G1 Z0 F3000
G1 X134.44 Y66.92 F800
G0 Z5
G0 X134.733 Y65.65 F3000
G1 Z0 F3000
G1 X136.161 Y64.2222 F800
G0 Z5
G0 X136.161 Y64.2222 F3000
G1 Z0 F3000
G1 X136.161 Y63.9374 F800
G0 Z5
G0 X136.161 Y63.9374 F3000
G1 Z0 F3000
G1 X136.866 Y63.2322 F800
G0 Z5
G0 X136.866 Y63.2322 F3000
G1 Z0 F3000
G1 X179.572 Y63.2322 F800
G0 Z5
G0 X179.572 Y63.2322 F3000
G1 Z0 F3000
G1 X180.72 Y64.38 F800
G0 Z5
G0 X182.15 Y61 F3000
G1 Z0 F3000
G1 X178.1 Y61 F800
G0 Z5
G0 X178.1 Y61 F3000
G1 Z0 F3000
G1 X174.05 Y61 F800
G0 Z5
G0 X174.05 Y61 F3000
G1 Z0 F3000
G1 X170 Y61 F800
G0 Z5
G0 X170 Y61 F3000
G1 Z0 F3000
G1 X165.95 Y61 F800
G0 Z5
G0 X165.95 Y61 F3000
G1 Z0 F3000
G1 X161.9 Y61 F800
G0 Z5
G0 X161.9 Y61 F3000
G1 Z0 F3000
G1 X157.85 Y61 F800
G0 Z5
G0 X157.85 Y61 F3000
G1 Z0 F3000
G1 X153.8 Y61 F800
G0 Z5
G0 X153.8 Y56 F3000
G1 Z0 F3000
G1 X157.85 Y56 F800
G0 Z5
G0 X157.85 Y56 F3000
G1 Z0 F3000
G1 X161.9 Y56 F800
G0 Z5
G0 X161.9 Y56 F3000
G1 Z0 F3000
G1 X165.95 Y56 F800
G0 Z5
G0 X165.95 Y56 F3000
G1 Z0 F3000
G1 X170 Y56 F800
G0 Z5
G0 X170 Y56 F3000
G1 Z0 F3000
G1 X174.05 Y56 F800
G0 Z5
G0 X174.05 Y56 F3000
G1 Z0 F3000
G1 X178.1 Y56 F800
G0 Z5
G0 X178.1 Y56 F3000
G1 Z0 F3000
G1 X182.15 Y56 F800
G0 Z5
G0 X190.23 Y68.19 F3000
G1 Z0 F3000
G1 X191.5 Y69.46 F800
G0 Z5
G0 X191.5 Y72 F3000
G1 Z0 F3000
G1 X190.23 Y73.27 F800
G0 Z5
G0 X190.23 Y73.27 F3000
G1 Z0 F3000
G1 X186.318 Y73.27 F800
G0 Z5
G0 X186.318 Y73.27 F3000
G1 Z0 F3000
G1 X181.18 Y78.4084 F800
G0 Z5
G0 X181.18 Y78.4084 F3000
G1 Z0 F3000
G1 X180.374 Y78.4084 F800
G0 Z5
G0 X180.374 Y78.4084 F3000
G1 Z0 F3000
G1 X177.599 Y81.1827 F800
G0 Z5
G0 X177.599 Y81.1827 F3000
G1 Z0 F3000
G1 X114.214 Y81.1827 F800
G0 Z5
G0 X114.214 Y81.1827 F3000
G1 Z0 F3000
G1 X113.99 Y80.9595 F800
G0 Z5
G0 X113.741 Y80.3578 F3000
G1 Z0 F3000
G1 X114.24 Y80.3578 F800
G0 Z5
G0 X114.24 Y80.3578 F3000
G1 Z0 F3000
G1 X114.638 Y80.7564 F800
G0 Z5
G0 X114.638 Y80.7564 F3000
G1 Z0 F3000
G1 X145.643 Y80.7564 F800
G0 Z5
G0 X145.643 Y80.7564 F3000
G1 Z0 F3000
G1 X146.523 Y79.8759 F800
G0 Z5
G0 X148.38 Y74.54 F3000
G1 Z0 F3000
G1 X147.11 Y73.27 F800
G0 Z5
G0 X147.11 Y73.27 F3000
G1 Z0 F3000
G1 X143.198 Y73.27 F800
G0 Z5
G0 X143.198 Y73.27 F3000
G1 Z0 F3000
G1 X140.807 Y70.8784 F800
G0 Z5
G0 X140.807 Y70.8784 F3000
G1 Z0 F3000
G1 X95.8984 Y70.8784 F800
G0 Z5
G0 X95.8984 Y70.8784 F3000
G1 Z0 F3000
G1 X94.48 Y69.46 F800
G0 Z5
G0 X95.5912 Y68.0312 F3000
G1 Z0 F3000
G1 X116.04 Y68.0312 F800
G0 Z5
G0 X116.04 Y68.0312 F3000
G1 Z0 F3000
G1 X116.04 Y66.92 F800
G0 Z5
G0 X116.04 Y68.0312 F3000
G1 Z0 F3000
G1 X125.709 Y68.0312 F800
G0 Z5
G0 X125.709 Y68.0312 F3000
G1 Z0 F3000
G1 X126.82 Y66.92 F800
G0 Z5
G0 X126.82 Y66.92 F3000
G1 Z0 F3000
G1 X128.09 Y65.65 F800
G0 Z5
G0 X128.09 Y65.65 F3000
G1 Z0 F3000
G1 X134.733 Y65.65 F800
G0 Z5
G0 X134.44 Y64.38 F3000
G1 Z0 F3000
G1 X128.702 Y64.38 F800
G0 Z5
G0 X128.702 Y64.38 F3000
G1 Z0 F3000
G1 X127.599 Y65.4827 F800
G0 Z5
G0 X127.599 Y65.4827 F3000
G1 Z0 F3000
G1 X124.763 Y65.4827 F800
G0 Z5
G0 X124.763 Y65.4827 F3000
G1 Z0 F3000
G1 X123.66 Y64.38 F800
G0 Z5
G0 X123.66 Y64.38 F3000
G1 Z0 F3000
G1 X122.493 Y65.5472 F800
G0 Z5
G0 X122.493 Y65.5472 F3000
G1 Z0 F3000
G1 X114.047 Y65.5472 F800
G0 Z5
G0 X114.047 Y65.5472 F3000
G1 Z0 F3000
G1 X112.88 Y64.38 F800
G0 Z5
G0 X114.92 Y63.2601 F3000
G1 Z0 F3000
G1 X116.04 Y64.38 F800
G0 Z5
G0 X114.92 Y63.2601 F3000
G1 Z0 F3000
G1 X108.92 Y63.2601 F800
G0 Z5
G0 X108.92 Y63.2601 F3000
G1 Z0 F3000
G1 X105.26 Y66.92 F800
G0 Z5
G0 X110.246 Y69.46 F3000
G1 Z0 F3000
G1 X112.88 Y69.46 F800
G0 Z5
G0 X112.88 Y72 F3000
G1 Z0 F3000
G1 X114.15 Y73.27 F800
G0 Z5
G0 X114.15 Y73.27 F3000
G1 Z0 F3000
G1 X136.33 Y73.27 F800
G0 Z5
G0 X136.33 Y73.27 F3000
G1 Z0 F3000
G1 X137.6 Y74.54 F800
G0 Z5
G0 X134.44 Y69.46 F3000
G1 Z0 F3000
G1 X126.82 Y69.46 F800
G0 Z5
G0 X127.49 Y68.268 F3000
G1 Z0 F3000
G1 X136.943 Y68.268 F800
G0 Z5
G0 X132.822 Y59 F3000
G1 Z0 F3000
G1 X133.997 Y57.8257 F800
G0 Z5
G0 X133.997 Y57.8257 F3000
G1 Z0 F3000
G1 X147.283 Y57.8257 F800
G0 Z5
G0 X147.283 Y57.8257 F3000
G1 Z0 F3000
G1 X148.458 Y59 F800
G0 Z5
G0 X148.38 Y69.46 F3000
G1 Z0 F3000
G1 X153.513 Y69.46 F800
G0 Z5
G0 X153.513 Y69.46 F3000
G1 Z0 F3000
G1 X154.469 Y70.416 F800
G0 Z5
G0 X154.847 Y70.8887 F3000
G1 Z0 F3000
G1 X159.16 Y70.8887 F800
G0 Z5
G0 X159.16 Y70.8887 F3000
G1 Z0 F3000
G1 X159.16 Y72 F800
G0 Z5
G0 X159.16 Y70.8887 F3000
G1 Z0 F3000
G1 X168.511 Y70.8887 F800
G0 Z5
G0 X168.511 Y70.8887 F3000
G1 Z0 F3000
G1 X169.94 Y69.46 F800
G0 Z5
G0 X168.67 Y68.19 F3000
G1 Z0 F3000
G1 X169.94 Y66.92 F800
G0 Z5
G0 X168.67 Y68.19 F3000
G1 Z0 F3000
G1 X160.43 Y68.19 F800
G0 Z5
G0 X160.43 Y68.19 F3000
G1 Z0 F3000
G1 X159.16 Y69.46 F800
G0 Z5
G0 X154.847 Y70.8887 F3000
G1 Z0 F3000
G1 X153.736 Y72 F800
G0 Z5
G0 X153.736 Y72 F3000
G1 Z0 F3000
G1 X148.38 Y72 F800
G0 Z5
G0 X152.596 Y78.3502 F3000
G1 Z0 F3000
G1 X126.116 Y78.3502 F800
G0 Z5
G0 X126.116 Y78.3502 F3000
G1 Z0 F3000
G1 X124.846 Y77.08 F800
G0 Z5
G0 X124.846 Y77.08 F3000
G1 Z0 F3000
G1 X123.66 Y77.08 F800
G0 Z5
G0 X123.66 Y77.08 F3000
G1 Z0 F3000
G1 X122.39 Y75.81 F800
G0 Z5
G0 X122.39 Y75.81 F3000
G1 Z0 F3000
G1 X95.75 Y75.81 F800
G0 Z5
G0 X95.75 Y75.81 F3000
G1 Z0 F3000
G1 X94.48 Y74.54 F800
G0 Z5
G0 X94.48 Y77.08 F3000
G1 Z0 F3000
G1 X95.75 Y78.35 F800
G0 Z5
G0 X95.75 Y78.35 F3000
G1 Z0 F3000
G1 X111.61 Y78.35 F800
G0 Z5
G0 X111.61 Y78.35 F3000
G1 Z0 F3000
G1 X112.88 Y79.62 F800
G0 Z5
G0 X113.741 Y80.3578 F3000
G1 Z0 F3000
G1 X113.343 Y80.7563 F800
G0 Z5
G0 X113.343 Y80.7563 F3000
G1 Z0 F3000
G1 X95.6163 Y80.7563 F800
G0 Z5
G0 X95.6163 Y80.7563 F3000
G1 Z0 F3000
G1 X94.48 Y79.62 F800
G0 Z5
G0 X95.5912 Y68.0312 F3000
G1 Z0 F3000
G1 X94.48 Y66.92 F800
G0 Z5
G0 X105.26 Y74.54 F3000
G1 Z0 F3000
G1 X112.88 Y74.54 F800
G0 Z5
G0 X112.88 Y74.54 F3000
G1 Z0 F3000
G1 X116.04 Y74.54 F800
G0 Z5
G0 X116.04 Y74.54 F3000
G1 Z0 F3000
G1 X123.66 Y74.54 F800
G0 Z5
G0 X126.82 Y74.54 F3000
G1 Z0 F3000
G1 X127.956 Y75.676 F800
G0 Z5
G0 X127.956 Y75.676 F3000
G1 Z0 F3000
G1 X171.991 Y75.676 F800
G0 Z5
G0 X171.991 Y75.676 F3000
G1 Z0 F3000
G1 X174.397 Y73.27 F800
G0 Z5
G0 X174.397 Y73.27 F3000
G1 Z0 F3000
G1 X179.45 Y73.27 F800
G0 Z5
G0 X179.45 Y73.27 F3000
G1 Z0 F3000
G1 X180.72 Y72 F800
G0 Z5
G0 X180.72 Y74.54 F3000
G1 Z0 F3000
G1 X179.45 Y75.81 F800
G0 Z5
G0 X179.45 Y75.81 F3000
G1 Z0 F3000
G1 X174.648 Y75.81 F800
G0 Z5
G0 X174.648 Y75.81 F3000
G1 Z0 F3000
G1 X171.95 Y78.5087 F800
G0 Z5
G0 X171.95 Y78.5087 F3000
G1 Z0 F3000
G1 X166.78 Y78.5087 F800
G0 Z5
G0 X166.78 Y78.5087 F3000
G1 Z0 F3000
G1 X157.111 Y78.5087 F800
G0 Z5
G0 X157.111 Y78.5087 F3000
G1 Z0 F3000
G1 X156 Y79.62 F800
G0 Z5
G0 X155 Y80.7543 F3000
G1 Z0 F3000
G1 X172.37 Y80.7543 F800
G0 Z5
G0 X172.37 Y80.7543 F3000
G1 Z0 F3000
G1 X174.774 Y78.35 F800
G0 Z5
G0 X174.774 Y78.35 F3000
G1 Z0 F3000
G1 X179.45 Y78.35 F800
G0 Z5
G0 X179.45 Y78.35 F3000
G1 Z0 F3000
G1 X180.72 Y77.08 F800
G0 Z5
G0 X166.78 Y78.5087 F3000
G1 Z0 F3000
G1 X166.78 Y79.62 F800
G0 Z5
G0 X158.69 Y86 F3000
G1 Z0 F3000
G1 X156.797 Y84.107 F800
G0 Z5
G0 X156.797 Y84.107 F3000
G1 Z0 F3000
G1 X121.82 Y84.107 F800
G0 Z5
G0 X121.82 Y84.107 F3000
G1 Z0 F3000
G1 X121.202 Y84.725 F800
G0 Z5
G0 X121.202 Y84.725 F3000
G1 Z0 F3000
G1 X120 Y84.725 F800
G0 Z5
G0 X119.057 Y90.05 F3000
G1 Z0 F3000
G1 X158.69 Y90.05 F800
G0 Z5
G0 X153.542 Y87.1675 F3000
G1 Z0 F3000
G1 X152.389 Y88.321 F800
G0 Z5
G0 X152.389 Y88.321 F3000
G1 Z0 F3000
G1 X137.696 Y88.321 F800
G0 Z5
G0 X137.696 Y88.321 F3000
G1 Z0 F3000
G1 X136.542 Y87.1675 F800
G0 Z5
G0 X137.245 Y85.9605 F3000
G1 Z0 F3000
G1 X129.75 Y85.9605 F800
G0 Z5
G0 X129.75 Y85.9605 F3000
G1 Z0 F3000
G1 X128.542 Y87.1675 F800
G0 Z5
G0 X126.82 Y79.62 F3000
G1 Z0 F3000
G1 X126.781 Y79.62 F800
G0 Z5
G0 X126.781 Y79.62 F3000
G1 Z0 F3000
G1 X125.67 Y78.5087 F800
G0 Z5
G0 X125.67 Y78.5087 F3000
G1 Z0 F3000
G1 X117.151 Y78.5087 F800
G0 Z5
G0 X117.151 Y78.5087 F3000
G1 Z0 F3000
G1 X116.04 Y79.62 F800
G0 Z5
G0 X113.732 Y84.725 F3000
G1 Z0 F3000
G1 X112.53 Y84.725 F800
G0 Z5
G0 X113.732 Y84.725 F3000
G1 Z0 F3000
G1 X119.057 Y90.05 F800
G0 Z5
G0 X137.245 Y85.9605 F3000
G1 Z0 F3000
G1 X138.452 Y87.1675 F800
G0 Z5
G0 X138.452 Y87.1675 F3000
G1 Z0 F3000
G1 X145.542 Y87.1675 F800
G0 Z5
G0 X152.596 Y78.3502 F3000
G1 Z0 F3000
G1 X155 Y80.7543 F800
G0 Z5
G0 X0 Y0 F3000
M2
